OBJECT_NAME,OBJECT_ID,EPOCH,MEAN_MOTION,ECCENTRICITY,INCLINATION,RA_OF_ASC_NODE,ARG_OF_PERICENTER,MEAN_ANOMALY,EPHEMERIS_TYPE,CLASSIFICATION_TYPE,NORAD_CAT_ID,ELEMENT_SET_NO,REV_AT_EPOCH,BSTAR,MEAN_MOTION_DOT,MEAN_MOTION_DDOT
STARLINK-37987,2026-150L,2026-07-20T11:38:28.027104,15.75258971,.00009319,97.2849,40.1034,90.7544,269.3828,0,U,69749,999,415,.13353516E-2,.204498E-2,0
STARLINK-38037,2026-150M,2026-07-19T01:26:59.435232,15.80816640,.00019856,97.2848,38.6752,76.0288,284.1201,0,U,69750,999,393,.10371471E-2,.203229E-2,0
STARLINK-38049,2026-150N,2026-07-20T12:22:03.455328,15.80890617,.00009068,97.2850,40.2170,91.9583,268.1790,0,U,69751,999,416,.94953999E-3,.186309E-2,0
STARLINK-38029,2026-150P,2026-07-20T02:05:42.522144,15.75187814,.00018394,97.2845,39.7268,77.4578,282.6893,0,U,69752,999,409,.9198911E-3,.139328E-2,0
STARLINK-37965,2026-150Q,2026-07-20T08:21:16.924320,15.75226727,.00014878,97.2850,39.9831,69.9632,290.1793,0,U,69753,999,413,.10357288E-2,.157488E-2,0
STARLINK-38048,2026-150R,2026-07-20T12:13:14.357280,15.80903027,.00022083,97.2836,40.2242,113.6244,246.5256,0,U,69754,999,416,.10176883E-2,.200133E-2,0
STARLINK-38006,2026-150S,2026-07-20T06:36:34.955712,15.75226895,.00000141,97.2867,39.9305,282.3461,77.7803,0,U,69755,999,412,.69234294E-3,.104577E-2,0
STARLINK-38036,2026-150T,2026-07-20T01:52:31.044576,15.75169439,.00015631,97.2844,39.7405,76.2470,283.8969,0,U,69756,999,409,.93255362E-3,.141164E-2,0
STARLINK-38058,2026-150U,2026-07-20T14:00:01.999872,15.75225761,.00012819,97.2846,40.2971,85.6346,315.5697,0,U,69757,999,416,-.66492499E-3,-.98326E-3,0
STARLINK-38066,2026-150V,2026-07-20T14:00:01.999872,15.75162381,.00016092,97.2840,40.3077,109.8817,315.2369,0,U,69758,999,416,-.611179E-6,-.221E-5,0
STARLINK-38035,2026-150W,2026-07-20T12:06:35.322336,15.80728470,.00028594,97.2853,40.2328,62.5796,297.5762,0,U,69759,999,416,-.95929881E-3,-.179511E-2,0
STARLINK-38056,2026-150X,2026-07-19T23:52:22.858464,15.80874613,.00013335,97.2834,39.7014,69.6797,290.4615,0,U,69760,999,408,.14776004E-2,.293402E-2,0
STARLINK-38069,2026-150Y,2026-07-20T14:00:01.999872,15.75244373,.00011763,97.2849,40.3120,71.6135,5.5828,0,U,69761,999,416,-.8493417E-3,-.125268E-2,0
STARLINK-38019,2026-150Z,2026-07-20T14:12:58.319424,15.75209263,.00010735,97.2846,40.2644,47.6078,312.5278,0,U,69762,999,417,.73789532E-3,.111471E-2,0
KUIPER-00258,2026-151A,2026-07-20T14:00:01.999872,15.34729056,.00109816,51.8685,154.5970,188.2060,46.7332,0,U,69763,999,320,-.57280487E-3,-.1995E-3,0
KUIPER-00526,2026-151B,2026-07-20T07:44:22.132032,15.37397004,.00058634,51.8770,155.6029,155.9128,204.2134,0,U,69764,999,280,.30514264E-3,.1099E-3,0
KUIPER-00558,2026-151C,2026-07-20T14:00:01.999872,15.29593862,.00066954,51.8800,154.5214,170.1790,103.1607,0,U,69765,999,344,-.16039715E-2,-.4677E-3,0
KUIPER-00569,2026-151D,2026-07-19T00:00:00.999648,15.37536026,.00051062,51.8800,161.9756,149.5744,96.8948,0,U,69766,999,169,-.28959487E-3,-.11214E-3,0
KUIPER-00589,2026-151E,2026-07-20T14:00:01.999872,15.35730265,.00052398,51.8762,154.3326,157.3982,208.1897,0,U,69767,999,348,-.23687384E-1,-.768436E-2,0
KUIPER-00598,2026-151F,2026-07-20T14:00:01.999872,15.34348563,.00084605,51.8651,154.6012,180.0397,50.4730,0,U,69768,999,338,-.33427296E-3,-.11665E-3,0
KUIPER-00604,2026-151G,2026-07-20T10:35:56.055264,15.38318795,.00027277,51.8800,154.9025,121.5844,238.5410,0,U,69769,999,282,.24410907E-3,.8982E-4,0
KUIPER-00609,2026-151H,2026-07-20T13:35:59.709120,15.38715299,.00012711,51.8801,154.2411,66.0733,294.0388,0,U,69770,999,284,.26838207E-3,.10048E-3,0
KUIPER-00611,2026-151J,2026-07-20T07:25:15.153888,15.38530584,.00015418,51.8810,155.5117,109.4734,250.6420,0,U,69771,999,280,.31817018E-3,.11915E-3,0
KUIPER-00612,2026-151K,2026-07-20T13:48:07.317216,15.38020334,.000371,51.8794,154.2974,132.3653,227.7649,0,U,69772,999,284,.24923092E-3,.9088E-4,0
KUIPER-00614,2026-151L,2026-07-20T07:30:18.560448,15.38222100,.00026884,51.8804,155.5365,136.1319,223.9882,0,U,69773,999,280,.22423383E-3,.8191E-4,0
KUIPER-00615,2026-151M,2026-07-20T14:00:20.554272,15.37312394,.00060315,51.8783,154.3513,162.1240,197.9960,0,U,69774,999,284,.45786719E-3,.16655E-3,0
KUIPER-00616,2026-151N,2026-07-20T13:41:31.250112,15.38409114,.00027807,51.8781,154.2702,138.3833,221.7366,0,U,69775,999,284,.39991461E-3,.15025E-3,0
KUIPER-00617,2026-151P,2026-07-20T12:16:53.954112,15.37866569,.0003873,51.8802,154.6220,152.1519,207.9676,0,U,69776,999,283,.33120265E-3,.1215E-3,0
KUIPER-00619,2026-151Q,2026-07-20T13:37:39.358560,15.38626487,.00017541,51.8804,154.2475,72.5370,287.5809,0,U,69777,999,284,.36408457E-3,.13739E-3,0
KUIPER-00621,2026-151R,2026-07-20T14:00:01.999872,15.38351008,.00022788,51.8792,154.2070,125.3372,305.5068,0,U,69778,999,362,-.33270456E-3,-.13153E-3,0
