STARLINK-37987          
1 69749U 26150L   26201.48504661  .00204498  00000+0  13354-2 0  9998
2 69749  97.2849  40.1034 0000931  90.7544 269.3828 15.75258971  4158
STARLINK-38037          
1 69750U 26150M   26200.06041013  .00203229  00000+0  10371-2 0  9997
2 69750  97.2848  38.6752 0001985  76.0288 284.1201 15.80816640  3934
STARLINK-38049          
1 69751U 26150N   26201.51531777  .00186309  00000+0  94954-3 0  9999
2 69751  97.2850  40.2170 0000906  91.9583 268.1790 15.80890617  4164
STARLINK-38029          
1 69752U 26150P   26201.08729771  .00139328  00000+0  91989-3 0  9999
2 69752  97.2845  39.7268 0001839  77.4578 282.6893 15.75187814  4098
STARLINK-37965          
1 69753U 26150Q   26201.34811255  .00157488  00000+0  10357-2 0  9994
2 69753  97.2850  39.9831 0001487  69.9632 290.1793 15.75226727  4134
STARLINK-38048          
1 69754U 26150R   26201.50919395  .00200133  00000+0  10177-2 0  9993
2 69754  97.2836  40.2242 0002208 113.6244 246.5256 15.80903027  4161
STARLINK-38006          
1 69755U 26150S   26201.27540458  .00104577  00000+0  69234-3 0  9992
2 69755  97.2867  39.9305 0000014 282.3461  77.7803 15.75226895  4122
STARLINK-38036          
1 69756U 26150T   26201.07813709  .00141164  00000+0  93255-3 0  9996
2 69756  97.2844  39.7405 0001563  76.2470 283.8969 15.75169439  4096
STARLINK-38058          
1 69757U 26150U   26201.58335648 -.00098326  00000+0 -66492-3 0  9990
2 69757  97.2846  40.2971 0001281  85.6346 315.5697 15.75225761  4167
STARLINK-38066          
1 69758U 26150V   26201.58335648 -.00000221  00000+0 -61118-6 0  9991
2 69758  97.2840  40.3077 0001609 109.8817 315.2369 15.75162381  4167
STARLINK-38035          
1 69759U 26150W   26201.50457549 -.00179511  00000+0 -95930-3 0  9994
2 69759  97.2853  40.2328 0002859  62.5796 297.5762 15.80728470  4161
STARLINK-38056          
1 69760U 26150X   26200.99470901  .00293402  00000+0  14776-2 0  9997
2 69760  97.2834  39.7014 0001333  69.6797 290.4615 15.80874613  4083
STARLINK-38069          
1 69761U 26150Y   26201.58335648 -.00125268  00000+0 -84934-3 0  9992
2 69761  97.2849  40.3120 0001176  71.6135   5.5828 15.75244373  4168
STARLINK-38019          
1 69762U 26150Z   26201.59234166  .00111471  00000+0  73790-3 0  9994
2 69762  97.2846  40.2644 0001073  47.6078 312.5278 15.75209263  4171
KUIPER-00258            
1 69763U 26151A   26201.58335648 -.00019950  00000+0 -57280-3 0  9999
2 69763  51.8685 154.5970 0010981 188.2060  46.7332 15.34729056  3203
KUIPER-00526            
1 69764U 26151B   26201.32247838  .00010990  00000+0  30514-3 0  9999
2 69764  51.8770 155.6029 0005863 155.9128 204.2134 15.37397004  2808
KUIPER-00558            
1 69765U 26151C   26201.58335648 -.00046770  00000+0 -16040-2 0  9999
2 69765  51.8800 154.5214 0006695 170.1790 103.1607 15.29593862  3449
KUIPER-00569            
1 69766U 26151D   26200.00001157 -.00011214  00000+0 -28959-3 0  9999
2 69766  51.8800 161.9756 0005106 149.5744  96.8948 15.37536026  1697
KUIPER-00589            
1 69767U 26151E   26201.58335648 -.00768436  00000+0 -23687-1 0  9995
2 69767  51.8762 154.3326 0005239 157.3982 208.1897 15.35730265  3481
KUIPER-00598            
1 69768U 26151F   26201.58335648 -.00011665  00000+0 -33427-3 0  9996
2 69768  51.8651 154.6012 0008460 180.0397  50.4730 15.34348563  3384
KUIPER-00604            
1 69769U 26151G   26201.44162101  .00008982  00000+0  24411-3 0  9993
2 69769  51.8800 154.9025 0002727 121.5844 238.5410 15.38318795  2825
KUIPER-00609            
1 69770U 26151H   26201.56666330  .00010048  00000+0  26838-3 0  9992
2 69770  51.8801 154.2411 0001271  66.0733 294.0388 15.38715299  2846
KUIPER-00611            
1 69771U 26151J   26201.30920317  .00011915  00000+0  31817-3 0  9990
2 69771  51.8810 155.5117 0001541 109.4734 250.6420 15.38530584  2800
KUIPER-00612            
1 69772U 26151K   26201.57508469  .00009088  00000+0  24923-3 0  9998
2 69772  51.8794 154.2974 0003710 132.3653 227.7649 15.38020334  2843
KUIPER-00614            
1 69773U 26151L   26201.31271482  .00008191  00000+0  22423-3 0  9990
2 69773  51.8804 155.5365 0002688 136.1319 223.9882 15.38222100  2806
KUIPER-00615            
1 69774U 26151M   26201.58357123  .00016655  00000+0  45787-3 0  9999
2 69774  51.8783 154.3513 0006031 162.1240 197.9960 15.37312394  2848
KUIPER-00616            
1 69775U 26151N   26201.57050058  .00015025  00000+0  39991-3 0  9996
2 69775  51.8781 154.2702 0002780 138.3833 221.7366 15.38409114  2840
KUIPER-00617            
1 69776U 26151P   26201.51173558  .00012150  00000+0  33120-3 0  9996
2 69776  51.8802 154.6220 0003873 152.1519 207.9676 15.37866569  2832
KUIPER-00619            
1 69777U 26151Q   26201.56781665  .00013739  00000+0  36408-3 0  9992
2 69777  51.8804 154.2475 0001754  72.5370 287.5809 15.38626487  2846
KUIPER-00621            
1 69778U 26151R   26201.58335648 -.00013153  00000+0 -33270-3 0  9997
2 69778  51.8792 154.2070 0002278 125.3372 305.5068 15.38351008  3624
